STARLINK-5405           
1 54863U 22177AV  24022.15159864  .00017503  00000+0  13071-2 0  9993
2 54863  43.0039  25.2277 0001117 263.6082  96.4633 15.02548649 59165
STARLINK-5359           
1 54864U 22177AW  24022.13938897  .00018828  00000+0  14048-2 0  9999
2 54864  43.0041  25.1348 0001023 244.8376 115.2360 15.02543814 59032
STARLINK-5411           
1 54865U 22177AX  24022.08845133  .00000316  00000+0  38491-4 0  9997
2 54865  43.0043  25.6126 0001038 264.1799  95.8925 15.02536399 59034
STARLINK-5398           
1 54866U 22177AY  24021.39814156  .00002721  00000+0  21637-3 0  9997
2 54866  43.0037  29.0325 0001050 257.1936 102.8789 15.02543341 60030
STARLINK-5396           
1 54867U 22177AZ  24022.14160923  .00014752  00000+0  11047-2 0  9998
2 54867  43.0042  25.1512 0001063 243.4880 116.5854 15.02540026 59043
STARLINK-5379           
1 54868U 22177BA  24022.12495896  .00017362  00000+0  12968-2 0  9990
2 54868  43.0039  25.0253 0001072 254.4518 105.6207 15.02546225 59038
STARLINK-5402           
1 54869U 22177BB  24022.13494994  .00009753  00000+0  73590-3 0  9994
2 54869  43.0041  25.1015 0001048 262.4166  97.6557 15.02544289 59047
STARLINK-5401           
1 54870U 22177BC  24022.12717919  .00000422  00000+0  46319-4 0  9994
2 54870  43.0033  25.0403 0001023 258.3399 101.7328 15.02538295 59048
STARLINK-5397           
1 54871U 22177BD  24021.40479677  .00002494  00000+0  19964-3 0  9997
2 54871  43.0045  29.0813 0001119 241.3568 118.7161 15.02538320 60030
STARLINK-5390           
1 54872U 22177BE  24021.38815641  .00002022  00000+0  16465-3 0  9990
2 54872  43.0037  28.9820 0001146 254.6383 105.4332 15.02543083 60035
STARLINK-5091           
1 54873U 22177BF  24022.12163123  .00001231  00000+0  10616-3 0  9998
2 54873  43.0040  24.9989 0001027 264.1769  95.8956 15.02534920 59160
STARLINK-5277           
1 55269U 23010A   24021.93446235  .00000650  00000+0  62239-4 0  9994
2 55269  69.9998 205.5344 0002613 273.0160  87.0700 14.98334167 56563
STARLINK-5301           
1 55270U 23010B   24021.94698526  .00000807  00000+0  75413-4 0  9991
2 55270  70.0001 205.5771 0002699 268.8966  91.1884 14.98337022 56288
STARLINK-5306           
1 55271U 23010C   24021.93863726  .00000318  00000+0  34475-4 0  9997
2 55271  70.0000 205.5480 0002776 272.6449  87.4392 14.98333071 56282
STARLINK-5310           
1 55272U 23010D   24021.88440150  .00000472  00000+0  47357-4 0  9998
2 55272  69.9999 205.7605 0002590 273.0893  86.9970 14.98333277 56273
STARLINK-5291           
1 55273U 23010E   24021.92628195  .00000533  00000+0  52504-4 0  9999
2 55273  69.9996 205.5057 0002504 273.1120  86.9753 14.98324353 55979
STARLINK-5236           
1 55274U 23010F   24021.85913224  .00000211  00000+0  25451-4 0  9996
2 55274  70.0009 185.8068 0002663 275.8124  84.2731 14.98330807 56765
STARLINK-5260           
1 55275U 23010G   24021.85496235 -.00000445  00000+0 -29484-4 0  9996
2 55275  70.0009 185.7920 0001920 269.7599  90.3340 14.98331288 56763
STARLINK-5261           
1 55276U 23010H   24021.85078214  .00000301  00000+0  32972-4 0  9995
2 55276  70.0010 185.7766 0002567 265.9760  94.1106 14.98331786 56451
STARLINK-5299           
1 55277U 23010J   24021.92611370  .00000612  00000+0  59068-4 0  9990
2 55277  69.9993 205.5049 0003122 269.5061  90.5741 14.98329594 56286
STARLINK-5289           
1 55278U 23010K   24021.90941777  .00000506  00000+0  50167-4 0  9999
2 55278  69.9991 205.4465 0002782 271.5434  88.5407 14.98333107 56274
STARLINK-5323           
1 55279U 23010L   24021.92194762  .00001831  00000+0  16113-3 0  9990
2 55279  69.9991 205.4901 0002646 270.9252  89.1604 14.98344504 56280
STARLINK-5331           
1 55280U 23010M   24021.90123545  .00000336  00000+0  35987-4 0  9991
2 55280  69.9991 205.4157 0002532 270.3068  89.7801 14.98331069 56274
STARLINK-5298           
1 55281U 23010N   24021.91777351  .00000304  00000+0  33269-4 0  9999
2 55281  69.9992 205.4752 0002501 268.8625  91.2247 14.98329769 56270
STARLINK-5330           
1 55282U 23010P   24021.89689188  .00000798  00000+0  74664-4 0  9998
2 55282  70.0001 205.3998 0002269 266.5257  93.5643 14.98340532 56279
STARLINK-5317           
1 55283U 23010Q   24021.91359308  .00000190  00000+0  23726-4 0  9999
2 55283  69.9993 205.4603 0002315 273.1319  86.9575 14.98336270 56270
STARLINK-5337           
1 55284U 23010R   24021.89272284  .00000441  00000+0  44719-4 0  9998
2 55284  70.0003 205.3849 0002292 273.5652  86.5245 14.98333287 56270
STARLINK-5332           
1 55285U 23010S   24021.79629033  .00000072  00000+0  13834-4 0  9990
2 55285  70.0008 165.7079 0003044 267.1352  92.9459 14.98340934 58123
STARLINK-5338           
1 55286U 23010T   24021.90919184  .00000164  00000+0  21569-4 0  9999
2 55286  70.0005 185.5784 0002665 271.6625  88.4229 14.98337821 56769
STARLINK-5341           
1 55287U 23010U   24021.79230858  .00000435  00000+0  44223-4 0  9994
2 55287  70.0011 166.0097 0002805 265.4053  94.6786 14.98332520 57231
STARLINK-5311           
1 55288U 23010V   24021.83007779  .00000092  00000+0  15499-4 0  9996
2 55288  70.0015 185.7048 0002223 263.1845  96.9061 14.98335545 56755
STARLINK-5320           
1 55289U 23010W   24021.84661089 -.00000139  00000+0 -38308-5 0  9997
2 55289  70.0007 185.7608 0002643 271.6489  88.4367 14.98329678 56758
STARLINK-5266           
1 55290U 23010X   24021.90501754 -.00001119  00000+0 -85988-4 0  9992
2 55290  70.0005 185.5629 0002949 277.7598  82.3226 14.98328639 56760
STARLINK-5327           
1 55291U 23010Y   24021.83842601  .00000233  00000+0  27300-4 0  9992
2 55291  70.0012 185.7332 0002514 263.9359  96.1513 14.98330169 56754
STARLINK-5325           
1 55292U 23010Z   24021.89249485 -.00000850  00000+0 -63478-4 0  9993
2 55292  69.9996 185.5179 0003107 273.6357  86.4447 14.98331336 56761
STARLINK-5287           
1 55293U 23010AA  24021.82991154  .00000076  00000+0  14136-4 0  9999
2 55293  70.0012 185.7023 0002576 265.6273  94.4592 14.98332014 56754
STARLINK-5286           
1 55294U 23010AB  24021.90107111  .00000585  00000+0  56788-4 0  9995
2 55294  69.9995 205.4137 0002361 272.3728  87.7160 14.98331236 56278
STARLINK-5293           
1 55295U 23010AC  24021.94281307  .00000161  00000+0  21290-4 0  9990
2 55295  70.0001 205.5626 0002508 272.0435  88.0437 14.98333598 56284
STARLINK-5285           
1 55296U 23010AD  24021.87997471  .00000416  00000+0  42621-4 0  9993
2 55296  70.0001 185.4751 0002915 267.5435  92.5391 14.98335861 57646
STARLINK-5284           
1 55297U 23010AE  24021.88831977  .00000547  00000+0  53625-4 0  9994
2 55297  70.0005 185.5035 0002807 273.0124  87.0714 14.98335076 56762
STARLINK-5272           
1 55298U 23010AF  24021.87579863 -.00001304  00000+0 -10153-3 0  9999
2 55298  70.0000 185.4615 0002852 271.8892  88.1941 14.98326420 57644
STARLINK-5270           
1 55299U 23010AG  24021.88013745  .00000337  00000+0  36007-4 0  9993
2 55299  70.0004 185.4761 0002392 272.0934  87.9951 14.98336190 57643
STARLINK-5308           
1 55300U 23010AH  24021.87162819  .00000015  00000+0  90386-5 0  9996
2 55300  70.0003 185.4452 0002884 271.6579  88.4250 14.98333133 56762
STARLINK-5321           
1 55302U 23010AK  24021.88415191 -.00000128  00000+0 -29829-5 0  9994
2 55302  70.0005 185.4865 0002418 273.7146  86.3737 14.98330876 56768
STARLINK-5322           
1 55303U 23010AL  24021.88856065  .00001270  00000+0  11421-3 0  9998
2 55303  69.9992 205.3696 0002647 273.6579  86.4277 14.98331874 56273
STARLINK-5318           
1 55304U 23010AM  24021.86745031 -.00000784  00000+0 -57892-4 0  9991
2 55304  70.0005 185.4294 0002874 274.7816  85.3015 14.98328138 56763
STARLINK-5316           
1 55305U 23010AN  24021.86330783  .00000132  00000+0  18842-4 0  9993
2 55305  70.0009 185.8219 0002653 269.3210  90.7645 14.98330443 56763
STARLINK-5295           
1 55306U 23010AP  24021.83386042  .00001026  00000+0  93742-4 0  9995
2 55306  70.0006 165.8429 0002820 269.8083  90.2753 14.98334716 57258
STARLINK-5288           
1 55307U 23010AQ  24021.77127771  .00000164  00000+0  21506-4 0  9992
2 55307  70.0010 166.0272 0002329 264.4176  95.6717 14.98336554 57241
STARLINK-5292           
1 55308U 23010AR  24021.81732599  .00000464  00000+0  46656-4 0  9994
2 55308  70.0010 165.7836 0002848 268.9874  91.0959 14.98338022 56939
STARLINK-5315           
1 55309U 23010AS  24021.83402688  .00000516  00000+0  50996-4 0  9990
2 55309  70.0008 165.8430 0002739 267.0957  92.9888 14.98336078 57255
STARLINK-5309           
1 55310U 23010AT  24021.82550797 -.00001250  00000+0 -96947-4 0  9990
2 55310  70.0008 165.8118 0001999 272.2238  87.8692 14.98348326 57252
STARLINK-5312           
1 55311U 23010AU  24021.82968440  .00000788  00000+0  73797-4 0  9990
2 55311  70.0002 165.8277 0002872 270.2749  89.8081 14.98337227 58128
STARLINK-5296           
1 55312U 23010AV  24021.80046438 -.00000207  00000+0 -95164-5 0  9994
2 55312  70.0012 165.6128 0002985 267.8913  92.1904 14.98331756 58125
STARLINK-5313           
1 55313U 23010AW  24021.81715881  .00000714  00000+0  67590-4 0  9993
2 55313  70.0010 165.7840 0002927 266.4484  93.6341 14.98337999 58126
STARLINK-5305           
1 55314U 23010AX  24021.82133181  .00001007  00000+0  92177-4 0  9997
2 55314  70.0009 165.7949 0003370 266.8738  93.2036 14.98339393 58121
STARLINK-4623           
1 55315U 23010AY  24021.90084782 -.00000252  00000+0 -13298-4 0  9999
2 55315  70.0013 185.5479 0002380 268.3058  91.7829 14.98331031 56758
STARLINK-5257           
1 55316U 23010AZ  24021.79212023  .00000318  00000+0  34411-4 0  9999
2 55316  70.0011 165.7111 0002719 271.4046  88.6802 14.98334427 58129
STARLINK-5265           
1 55317U 23010BA  24021.81300309  .00001077  00000+0  98023-4 0  9990
2 55317  70.0024 165.7979 0001920 260.6224  99.4718 14.98335121 58125
